IRIDIUM 65 [+]          
1 25288U 98021D   17314.18838002  .00000009  00000-0 -37915-5 0  9991
2 25288  86.3971 162.8679 0001805  84.8097 275.3304 14.34221328 25944
IRIDIUM 66 [+]          
1 25289U 98021E   17314.19471065 -.00000001  00000-0 -73553-5 0  9996
2 25289  86.3970 162.7674 0001795  81.9273 278.2126 14.34222091 25931
IRIDIUM 67 [+]          
1 25290U 98021F   17314.54989521  .00000010  00000-0 -34245-5 0  9992
2 25290  86.3966 162.7578 0001932  86.8666 273.2751 14.34221063 26000
IRIDIUM 68 [+]          
1 25291U 98021G   17314.48648671  .00000003  00000-0 -60685-5 0  9993
2 25291  86.3972 162.9053 0001908  84.0206 276.1207 14.34221251 25973
IRIDIUM 69 [-]          
1 25319U 98026A   17314.24040406  .00000133  00000-0  36980-4 0  9998
2 25319  86.4027 184.3073 0003268 120.2568 239.8954 14.38702159 24037
IRIDIUM 71 [-]          
1 25320U 98026B   17314.53642006  .00000138  00000-0  38152-4 0  9994
2 25320  86.4004 180.0064 0001532 156.5236 203.6033 14.39115778 24519
IRIDIUM 70 [+]          
1 25342U 98032A   17314.52355590  .00000011  00000-0 -31127-5 0  9990
2 25342  86.3972 163.1391 0001826  86.9889 333.6043 14.34221251 20078
IRIDIUM 72 [+]          
1 25343U 98032B   17314.49914561  .00000007  00000-0 -45018-5 0  9995
2 25343  86.3970 162.7513 0001847  82.9937 277.1469 14.34222067 20071
IRIDIUM 73 [-]          
1 25344U 98032C   17314.53914432  .00000172  00000-0  39881-4 0  9990
2 25344  86.4407 141.1407 0001601  80.4534 279.6851 14.49073988 28741
IRIDIUM 75 [+]          
1 25346U 98032E   17314.50549492  .00000022  00000-0  80892-6 0  9993
2 25346  86.3969 163.0063 0001944  87.1353 273.0065 14.34222041 20645
IRIDIUM 3 [+]           
1 25431U 98048A   17314.30704010  .00000188  00000-0  60047-4 0  9993
2 25431  86.4005 194.6476 0001824  85.4000  51.3419 14.34221066  6568
IRIDIUM 76 [+]          
1 25432U 98048B   17314.22982654  .00000196  00000-0  62922-4 0  9990
2 25432  86.4002 194.4294 0001908  77.4696 282.6713 14.34224039  6522
IRIDIUM 82 [-]          
1 25467U 98051A   17314.53758479  .00001358  00000-0  10185-3 0  9996
2 25467  86.3973 313.7508 0180536 229.0504 129.4980 14.89578251  8623
IRIDIUM 81 [+]          
1 25468U 98051B   17314.52015672  .00000045  00000-0  81127-5 0  9995
2 25468  86.4201 320.6491 0002242  84.3356 275.8097 14.38610064  3882
IRIDIUM 80 [+]          
1 25469U 98051C   17314.49316576 -.00000012  00000-0 -11199-4 0  9996
2 25469  86.3929 320.9331 0002457 101.3085   8.4884 14.34217038  3808
IRIDIUM 2 [-]           
1 25527U 98066A   17314.52354699  .00002378  00000-0  11864-3 0  9992
2 25527  85.5268 305.8432 0006551 274.5557  85.4935 15.16967547 40058
IRIDIUM 86 [+]          
1 25528U 98066B   17314.41771343 -.00000012  00000-0 -11223-4 0  9995
2 25528  86.3916 288.6359 0001934  84.5200 275.6216 14.34215432   327
IRIDIUM 84 [+]          
1 25530U 98066D   17314.44942082 -.00000012  00000-0 -11499-4 0  9996
2 25530  86.3917 288.7899 0002108  81.4471 278.6963 14.34215525997961
IRIDIUM 83 [+]          
1 25531U 98066E   17314.13229100 -.00000023  00000-0 -15409-4 0  9999
2 25531  86.3920 289.0542 0002173  82.9227 277.2216 14.34215614995279
IRIDIUM 20 [+]          
1 25577U 98074A   17314.26154869  .00000187  00000-0  59873-4 0  9993
2 25577  86.4000 194.3356 0001947  85.0928 275.0491 14.34221667989370
IRIDIUM 11 [+]          
1 25578U 98074B   17314.43380270  .00000194  00000-0  62028-4 0  9994
2 25578  86.3999 194.4640 0001992  87.2582  16.2386 14.34223448998360
IRIDIUM 14 [+]          
1 25777U 99032A   17314.52453108 -.00000004  00000-0 -84550-5 0  9998
2 25777  86.3972 162.8271 0001771  83.9622 276.1776 14.34221353975654
IRIDIUM 21 [+]          
1 25778U 99032B   17314.49280124  .00000012  00000-0 -28327-5 0  9999
2 25778  86.3972 162.8572 0001944  78.6384 281.5030 14.34222212969085
IRIDIUM 91 [+]          
1 27372U 02005A   17314.34864476  .00000118  00000-0  35045-4 0  9997
2 27372  86.4005 226.0571 0001775  72.8857  64.5177 14.34212710832576
IRIDIUM 90 [S]          
1 27373U 02005B   17314.44276924  .00000007  00000-0 -39291-5 0  9990
2 27373  86.4431 288.9144 0002012  81.5963 278.5465 14.42943656832445
IRIDIUM 94 [+]          
1 27374U 02005C   17314.32013848  .00000192  00000-0  61575-4 0  9995
2 27374  86.4002 194.6449 0001542  67.3684  71.4892 14.34223370836892
IRIDIUM 95 [+]          
1 27375U 02005D   17314.36012908  .00000240  00000-0  78552-4 0  9993
2 27375  86.4001 226.0698 0002066  57.9380 302.2016 14.34216258831860
IRIDIUM 96 [+]          
1 27376U 02005E   17314.40791908  .00000198  00000-0  63804-4 0  9999
2 27376  86.3992 258.1083 0002875  62.6507 297.4981 14.34217371837077
IRIDIUM 97 [+]          
1 27450U 02031A   17314.37619331  .00000017  00000-0 -82023-6 0  9993
2 27450  86.3959 257.7457 0002305  82.9643 277.1815 14.34215114811185
IRIDIUM 98 [+]          
1 27451U 02031B   17314.47828566 -.00000017  00000-0 -13180-4 0  9994
2 27451  86.3923 321.0268 0001852  99.6390 260.5015 14.34217390812279
